FOX-1A (AO-85)          
1 40967U 15058D   26064.70042630  .00005287  00000+0  47790-3 0  9996
2 40967  64.7739 240.4268 0129073  97.5167 264.0629 14.90314048 98142
SINOD-D 1               
1 40968U 15058E   26064.62625141  .00007404  00000+0  60153-3 0  9993
2 40968  64.7751 223.0011 0117458  94.8707 266.5829 14.94995860101172
ELEKTRO-L 2             
1 41105U 15074A   26064.56703858 -.00000122  00000+0  00000+0 0  9992
2 41105   6.4339  71.7988 0003378 239.1004  42.0209  1.00270857 37465
DAMPE                   
1 41173U 15078A   26064.74679904  .00001400  00000+0  50027-4 0  9993
2 41173  97.4578  69.7170 0013884  83.5774 276.7047 15.30480122568723
ORBCOMM FM114           
1 41179U 15081A   26064.21640101  .00000859  00000+0  21854-3 0  9994
2 41179  47.0042 133.5177 0001234  85.6971 274.4056 14.58721704542574
ORBCOMM FM110           
1 41182U 15081D   26064.54808874  .00001371  00000+0  32718-3 0  9998
2 41182  47.0014 131.4233 0003500 302.6378  57.4170 14.58726599542492
ORBCOMM FM112           
1 41184U 15081F   26064.31166201  .00001044  00000+0  25772-3 0  9995
2 41184  46.9998  41.3561 0000983  62.9653 297.1333 14.58721068543783
ORBCOMM FM113           
1 41185U 15081G   26064.63134183  .00001037  00000+0  25616-3 0  9994
2 41185  47.0015  40.2122 0000567  78.0047 282.0903 14.58722995543810
ORBCOMM FM108           
1 41187U 15081J   26064.66247357  .00001280  00000+0  30782-3 0  9997
2 41187  47.0057 311.6058 0002170  71.9746 288.1376 14.58735945544968
ORBCOMM FM117           
1 41188U 15081K   26064.08006045  .00001127  00000+0  27532-3 0  9990
2 41188  47.0020 313.0271 0002513  78.7250 281.3918 14.58725522544921
ORBCOMM FM116           
1 41189U 15081L   26064.33482131  .00001211  00000+0  29333-3 0  9998
2 41189  47.0030  41.6041 0002628 297.8655  62.1965 14.58716965543772
CHUBUSAT-2              
1 41338U 16012B   26064.01931492  .00008616  00000+0  38808-3 0  9996
2 41338  30.9970 284.4066 0008846  92.4557 267.7097 15.19666998552557
CHUBUSAT-3              
1 41339U 16012C   26064.78143618  .00007590  00000+0  36280-3 0  9998
2 41339  31.0043 286.6316 0009225  90.2078 269.9619 15.17571348552476
HORYU-4                 
1 41340U 16012D   26064.44225828  .00100607  00000+0  10940-2 0  9994
2 41340  30.9912  97.7021 0002347 105.9687 254.1224 15.62025345554441
ZIYUAN 3-02 (ZY 3-02)   
1 41556U 16033A   26064.79420715  .00008169  00000+0  36557-3 0  9999
2 41556  97.3907 142.5196 0011182 314.3422  45.6897 15.21486369542261
CARTOSAT-2C             
1 41599U 16040A   26064.71955947  .00005964  00000+0  28641-3 0  9991
2 41599  97.4610 126.0523 0010089 132.8401 227.3682 15.19176431538007
LAPAN-A3                
1 41603U 16040E   26064.78043301  .00006137  00000+0  19857-3 0  9998
2 41603  97.1479  64.3891 0011496  35.7083 324.4926 15.32338628538974
